NORAD_CAT_ID,OBJECT_NAME,OBJECT_TYPE,EPOCH,MEAN_MOTION,ECCENTRICITY,INCLINATION,RA_OF_ASC_NODE,ARG_OF_PERICENTER,MEAN_ANOMALY,BSTAR,MEAN_MOTION_DOT,MEAN_MOTION_DDOT,TLE_LINE0,TLE_LINE1,TLE_LINE2,SEMIMAJOR_AXIS,PERIOD,APOGEE,PERIGEE,DECAYED
49173.0,STARLINK-3045,PAYLOAD,2023-11-23 18:51:25,14.98323284,0.0002499,70.0009,224.5791,269.3246,90.7627,4.0655e-05,3.92e-06,0.0,0 STARLINK-3045,1 49173U 21082AV  23327.78571286  .00000392  00000-0  40655-4 0  9996,2 49173  70.0009 224.5791 0002499 269.3246  90.7627 14.98323284121119,6950.214,96.107,573.816,570.342,0.0
49173.0,STARLINK-3045,PAYLOAD,2023-11-23 22:03:41,14.98322451,0.0002417,69.9999,224.2416,268.0271,92.0611,3.2628e-05,2.96e-06,0.0,0 STARLINK-3045,1 49173U 21082AV  23327.91923427  .00000296  00000-0  32628-4 0  9993,2 49173  69.9999 224.2416 0002417 268.0271  92.0611 14.98322451121134,6950.216,96.107,573.761,570.401,0.0
49173.0,STARLINK-3045,PAYLOAD,2023-11-24 02:52:06,14.98324116,0.0002477,69.9996,223.736,267.7396,92.3479,2.3943e-05,1.93e-06,0.0,0 STARLINK-3045,1 49173U 21082AV  23328.11951421  .00000193  00000-0  23943-4 0  9997,2 49173  69.9996 223.7360 0002477 267.7396  92.3479 14.98324116121161,6950.211,96.107,573.798,570.355,0.0
49173.0,STARLINK-3045,PAYLOAD,2023-11-24 20:29:34,14.98332648,0.0002561,69.9995,221.8845,268.5907,91.4959,8.9474e-05,9.75e-06,0.0,0 STARLINK-3045,1 49173U 21082AV  23328.85386988  .00000975  00000-0  89474-4 0  9997,2 49173  69.9995 221.8845 0002561 268.5907  91.4959 14.98332648121272,6950.185,96.107,573.83,570.27,0.0
49173.0,STARLINK-3045,PAYLOAD,2023-11-24 22:05:42,14.98331769,0.0002485,69.9996,221.7165,262.3222,97.7655,0.00011997,1.339e-05,0.0,0 STARLINK-3045,1 49173U 21082AV  23328.92062969  .00001339  00000-0  11997-3 0  9994,2 49173  69.9996 221.7165 0002485 262.3222  97.7655 14.98331769121280,6950.187,96.107,573.78,570.325,0.0
49173.0,STARLINK-3045,PAYLOAD,2023-11-25 02:54:06,14.98338848,0.0002506,69.9996,221.2116,268.6599,91.4273,0.00016229,1.844e-05,0.0,0 STARLINK-3045,1 49173U 21082AV  23329.12090397  .00001844  00000-0  16229-3 0  9997,2 49173  69.9996 221.2116 0002506 268.6599  91.4273 14.98338848121317,6950.166,96.106,573.772,570.289,0.0
49173.0,STARLINK-3045,PAYLOAD,2023-11-25 22:07:42,14.98337998,0.000249,69.9997,219.1912,267.92,92.1674,0.00027599,3.202e-05,0.0,0 STARLINK-3045,1 49173U 21082AV  23329.92202369  .00003202  00000-0  27599-3 0  9991,2 49173  69.9997 219.1912 0002490 267.9200  92.1674 14.98337998121432,6950.168,96.106,573.764,570.303,0.0
49173.0,STARLINK-3045,PAYLOAD,2023-11-26 02:56:06,14.98353518,0.0002149,70.0016,218.6879,269.6249,90.4664,0.00057204,6.743e-05,0.0,0 STARLINK-3045,1 49173U 21082AV  23330.12229743  .00006743  00000-0  57204-3 0  9999,2 49173  70.0016 218.6879 0002149 269.6249  90.4664 14.98353518121465,6950.12,96.105,573.479,570.492,0.0
49173.0,STARLINK-3045,PAYLOAD,2023-11-26 18:57:28,14.98325547,0.0002677,70.0013,217.0042,257.3065,102.7795,-0.00019168,-2.379e-05,0.0,0 STARLINK-3045,1 49173U 21082AV  23330.78990875 -.00002379  00000-0 -19168-3 0  9992,2 49173  70.0013 217.0042 0002677 257.3065 102.7795 14.98325547121567,6950.207,96.107,573.932,570.211,0.0
49173.0,STARLINK-3045,PAYLOAD,2023-11-26 22:09:44,14.98322341,0.0002548,70.0013,216.6681,248.4645,111.6242,-0.00025869,-3.177e-05,0.0,0 STARLINK-3045,1 49173U 21082AV  23330.92342988 -.00003177  00000-0 -25869-3 0  9996,2 49173  70.0013 216.6681 0002548 248.4645 111.6242 14.98322341121580,6950.217,96.107,573.852,570.311,0.0
49173.0,STARLINK-3045,PAYLOAD,2023-11-27 02:58:08,14.98325345,0.0002783,69.999,216.1617,256.7672,103.3176,-7.5047e-05,-9.88e-06,0.0,0 STARLINK-3045,1 49173U 21082AV  23331.12371485 -.00000988  00000-0 -75047-4 0  9994,2 49173  69.9990 216.1617 0002783 256.7672 103.3176 14.98325345121613,6950.207,96.107,574.007,570.138,0.0
49173.0,STARLINK-3045,PAYLOAD,2023-11-27 18:59:29,14.98331941,0.0002967,69.9987,214.4783,262.5795,97.5027,7.1789e-06,-7e-08,0.0,0 STARLINK-3045,1 49173U 21082AV  23331.79130954 -.00000007  00000-0  71789-5 0  9992,2 49173  69.9987 214.4783 0002967 262.5795  97.5027 14.98331941121718,6950.187,96.107,574.114,569.99,0.0
49173.0,STARLINK-3045,PAYLOAD,2023-11-27 22:11:45,14.98332503,0.000259,69.9998,214.1428,250.1908,109.8972,2.6491e-05,2.23e-06,0.0,0 STARLINK-3045,1 49173U 21082AV  23331.92482894  .00000223  00000-0  26491-4 0  9998,2 49173  69.9998 214.1428 0002590 250.1908 109.8972 14.98332503121737,6950.185,96.107,573.85,570.25,0.0
49173.0,STARLINK-3045,PAYLOAD,2023-11-28 03:00:08,14.98340591,0.0002198,69.9999,213.6381,263.4396,96.6512,0.0001503,1.701e-05,0.0,0 STARLINK-3045,1 49173U 21082AV  23332.12510256  .00001701  00000-0  15030-3 0  9993,2 49173  69.9999 213.6381 0002198 263.4396  96.6512 14.98340591121764,6950.16,96.106,573.553,570.497,0.0
49173.0,STARLINK-3045,PAYLOAD,2023-11-28 20:37:38,14.98320351,0.0002742,70.0001,211.7858,259.0749,101.0102,0.00020974,2.41e-05,0.0,0 STARLINK-3045,1 49173U 21082AV  23332.85947355  .00002410  00000-0  20974-3 0  9998,2 49173  70.0001 211.7858 0002742 259.0749 101.0102 14.98320351121877,6950.223,96.108,573.993,570.182,0.0
49173.0,STARLINK-3045,PAYLOAD,2023-11-29 01:26:02,14.98330191,0.0002486,69.9996,211.2813,257.9029,102.1852,0.000277,3.214e-05,0.0,0 STARLINK-3045,1 49173U 21082AV  23333.05974690  .00003214  00000-0  27700-3 0  9990,2 49173  69.9996 211.2813 0002486 257.9029 102.1852 14.98330191121907,6950.192,96.107,573.785,570.329,0.0
49173.0,STARLINK-3045,PAYLOAD,2023-11-29 19:03:29,14.98343205,0.0002727,69.9999,209.4288,254.666,105.4197,0.00020134,2.311e-05,0.0,0 STARLINK-3045,1 49173U 21082AV  23333.79409650  .00002311  00000-0  20134-3 0  9991,2 49173  69.9999 209.4288 0002727 254.6660 105.4197 14.98343205122019,6950.152,96.106,573.912,570.122,0.0
49173.0,STARLINK-3045,PAYLOAD,2023-11-30 19:05:31,14.98329351,0.0002916,69.9989,206.9031,262.3106,97.7722,2.7791e-06,-6e-07,0.0,0 STARLINK-3045,1 49173U 21082AV  23334.79550680 -.00000060  00000-0  27791-5 0  9990,2 49173  69.9989 206.9031 0002916 262.3106  97.7722 14.98329351122166,6950.195,96.107,574.087,570.033,0.0
49173.0,STARLINK-3045,PAYLOAD,2023-12-01 01:30:04,14.983239,0.0003093,69.9987,206.2297,264.6196,95.461,-6.7823e-05,-9.02e-06,0.0,0 STARLINK-3045,1 49173U 21082AV  23335.06255090 -.00000902  00000-0 -67823-4 0  9993,2 49173  69.9987 206.2297 0003093 264.6196  95.4610 14.98323900122202,6950.212,96.107,574.226,569.927,0.0
49173.0,STARLINK-3045,PAYLOAD,2023-12-01 19:07:32,14.98335642,0.0003177,69.9984,204.379,269.157,90.9225,8.8708e-06,1.3e-07,0.0,0 STARLINK-3045,1 49173U 21082AV  23335.79690274  .00000013  00000-0  88708-5 0  9997,2 49173  69.9984 204.3790 0003177 269.1570  90.9225 14.98335642122315,6950.175,96.107,574.249,569.832,0.0
49173.0,STARLINK-3045,PAYLOAD,2023-12-01 22:19:48,14.98337156,0.0002716,69.9991,204.0406,270.0437,90.0411,0.00010833,1.2e-05,0.0,0 STARLINK-3045,1 49173U 21082AV  23335.93041991  .00001200  00000-0  10833-3 0  9990,2 49173  69.9991 204.0406 0002716 270.0437  90.0411 14.98337156122337,6950.171,96.107,573.923,570.148,0.0
49173.0,STARLINK-3045,PAYLOAD,2023-12-01 23:55:56,14.98342978,0.0002623,69.9998,203.8735,271.7033,88.3826,0.00024074,2.782e-05,0.0,0 STARLINK-3045,1 49173U 21082AV  23335.99717717  .00002782  00000-0  24074-3 0  9990,2 49173  69.9998 203.8735 0002623 271.7033  88.3826 14.98342978122342,6950.153,96.106,573.841,570.195,0.0
49173.0,STARLINK-3045,PAYLOAD,2023-12-02 01:32:03,14.98357158,0.000289,69.9996,203.7056,269.3689,90.7139,0.00055223,6.507e-05,0.0,0 STARLINK-3045,1 49173U 21082AV  23336.06393113  .00006507  00000-0  55223-3 0  9998,2 49173  69.9996 203.7056 0002890 269.3689  90.7139 14.98357158122352,6950.109,96.105,573.982,569.965,0.0
49173.0,STARLINK-3045,PAYLOAD,2023-12-02 19:09:33,14.98331872,0.0002317,70.0019,201.8575,242.4328,117.6596,0.00029926,3.48e-05,0.0,0 STARLINK-3045,1 49173U 21082AV  23336.79830297  .00003480  00000-0  29926-3 0  9995,2 49173  70.0019 201.8575 0002317 242.4328 117.6596 14.98331872122465,6950.187,96.107,573.662,570.442,0.0
49173.0,STARLINK-3045,PAYLOAD,2023-12-02 22:21:49,14.98329983,0.0003018,69.9992,201.5184,261.507,98.5747,0.00013941,1.571e-05,0.0,0 STARLINK-3045,1 49173U 21082AV  23336.93182243  .00001571  00000-0  13941-3 0  9991,2 49173  69.9992 201.5184 0003018 261.5070  98.5747 14.98329983122487,6950.193,96.107,574.156,569.96,0.0
49173.0,STARLINK-3045,PAYLOAD,2023-12-03 14:23:10,14.98331559,0.00027,69.9995,199.8347,258.9832,101.1024,-9.8124e-05,-1.264e-05,0.0,0 STARLINK-3045,1 49173U 21082AV  23337.59942375 -.00001264  00000-0 -98124-4 0  9992,2 49173  69.9995 199.8347 0002700 258.9832 101.1024 14.98331559122585,6950.188,96.107,573.93,570.177,0.0
49173.0,STARLINK-3045,PAYLOAD,2023-12-03 19:11:32,14.98367995,0.0002433,69.9996,199.33,256.2758,103.813,0.00067906,8.026e-05,0.0,0 STARLINK-3045,1 49173U 21082AV  23337.79968463  .00008026  00000-0  67906-3 0  9994,2 49173  69.9996 199.3300 0002433 256.2758 103.8130 14.98367995122615,6950.075,96.105,573.631,570.249,0.0
49173.0,STARLINK-3045,PAYLOAD,2023-12-03 23:59:56,14.98377702,0.0002397,70.0003,198.8274,232.4686,127.6256,0.00075868,8.982e-05,0.0,0 STARLINK-3045,1 49173U 21082AV  23337.99995467  .00008982  00000-0  75868-3 0  9997,2 49173  70.0003 198.8274 0002397 232.4686 127.6256 14.98377702122649,6950.045,96.104,573.576,570.244,0.0
49173.0,STARLINK-3045,PAYLOAD,2023-12-05 00:01:59,14.98327892,0.0002111,70.0,196.2995,289.2299,70.8632,-1.8707e-06,-1.15e-06,0.0,0 STARLINK-3045,1 49173U 21082AV  23339.00137929 -.00000115  00000-0 -18707-5 0  9995,2 49173  70.0000 196.2995 0002111 289.2299  70.8632 14.98327892122790,6950.199,96.107,573.532,570.597,0.0
49173.0,STARLINK-3045,PAYLOAD,2023-12-05 14:27:11,14.98336701,0.000209,70.0001,194.7855,245.7544,114.3397,-0.00020742,-2.567e-05,0.0,0 STARLINK-3045,1 49173U 21082AV  23339.60222138 -.00002567  00000-0 -20742-3 0  9991,2 49173  70.0001 194.7855 0002090 245.7544 114.3397 14.98336701122886,6950.172,96.107,573.49,570.585,0.0
